{
    "links": {
        "self": "http://www.neowsapp.com/rest/v1/neo/3837558?api_key=iIulBulltgU6a56xZRHN4H3l9WmuAYTsLGpBGhQ2"
    },
    "id": "3837558",
    "neo_reference_id": "3837558",
    "name": "(2019 AT)",
    "designation": "2019 AT",
    "nasa_jpl_url": "http://ssd.jpl.nasa.gov/sbdb.cgi?sstr=3837558",
    "absolute_magnitude_h": 25.0,
    "estimated_diameter": {
        "kilometers": {
            "estimated_diameter_min": 0.02658,
            "estimated_diameter_max": 0.0594346868
        },
        "meters": {
            "estimated_diameter_min": 26.58,
            "estimated_diameter_max": 59.4346868419
        },
        "miles": {
            "estimated_diameter_min": 0.0165160412,
            "estimated_diameter_max": 0.0369309908
        },
        "feet": {
            "estimated_diameter_min": 87.2047272,
            "estimated_diameter_max": 194.9956979785
        }
    },
    "is_potentially_hazardous_asteroid": false,
    "close_approach_data": [
        {
            "close_approach_date": "2018-12-22",
            "close_approach_date_full": "2018-Dec-22 00:47",
            "epoch_date_close_approach": 1545439620000,
            "relative_velocity": {
                "kilometers_per_second": "7.5860829477",
                "kilometers_per_hour": "27309.8986117158",
                "miles_per_hour": "16969.3089457075"
            },
            "miss_distance": {
                "astronomical": "0.0196200914",
                "lunar": "7.6322155546",
                "kilometers": "2935123.882645318",
                "miles": "1823801.4098806684"
            },
            "orbiting_body": "Earth"
        }
    ],
    "orbital_data": {
        "orbit_id": "3",
        "orbit_determination_date": "2019-01-13 07:50:44",
        "first_observation_date": "2018-12-31",
        "last_observation_date": "2019-01-12",
        "data_arc_in_days": 12,
        "observations_used": 17,
        "orbit_uncertainty": "8",
        "minimum_orbit_intersection": ".0195375",
        "jupiter_tisserand_invariant": "3.189",
        "epoch_osculation": "2458488.5",
        "eccentricity": ".6015063932117181",
        "semi_major_axis": "2.498371866991107",
        "inclination": "1.371803022177498",
        "ascending_node_longitude": "232.2123895292762",
        "orbital_period": "1442.394468292931",
        "perihelion_distance": ".9955852163756602",
        "perihelion_argument": "222.616015316218",
        "aphelion_distance": "4.001158517606554",
        "perihelion_time": "2458478.467699830445",
        "mean_anomaly": "2.503911475280511",
        "mean_motion": ".2495849837985436",
        "equinox": "J2000",
        "orbit_class": {
            "orbit_class_type": "APO",
            "orbit_class_description": "Near-Earth asteroid orbits which cross the Earth’s orbit similar to that of 1862 Apollo",
            "orbit_class_range": "a (semi-major axis) > 1.0 AU; q (perihelion) < 1.017 AU"
        }
    },
    "is_sentry_object": false
}